STARLINK-34152          
1 64000U 25101G   26068.21493166  .00047476  00000+0  17214-2 0  9997
2 64000  43.0038   0.5586 0002666 260.3604  99.6946 15.27622597 46981
COSMOS 2588             
1 64095U 25109A   26068.81179522  .00009169  00000+0  32611-3 0  9998
2 64095  72.9704  73.5401 0005019 308.6780  51.3966 15.29122656 44425
