[{"OBJECT_NAME":"STARLINK-34152","OBJECT_ID":"2025-101G","EPOCH":"2026-03-09T05:09:30.095424","MEAN_MOTION":15.27622597,"ECCENTRICITY":0.00026669,"INCLINATION":43.0038,"RA_OF_ASC_NODE":0.5586,"ARG_OF_PERICENTER":260.3604,"MEAN_ANOMALY":99.6946,"EPHEMERIS_TYPE":0,"CLASSIFICATION_TYPE":"U","NORAD_CAT_ID":64000,"ELEMENT_SET_NO":999,"REV_AT_EPOCH":4698,"BSTAR":0.0017213719,"MEAN_MOTION_DOT":0.00047476,"MEAN_MOTION_DDOT":0},{"OBJECT_NAME":"COSMOS 2588","OBJECT_ID":"2025-109A","EPOCH":"2026-03-09T19:28:59.107008","MEAN_MOTION":15.29122656,"ECCENTRICITY":0.0005019,"INCLINATION":72.9704,"RA_OF_ASC_NODE":73.5401,"ARG_OF_PERICENTER":308.678,"MEAN_ANOMALY":51.3966,"EPHEMERIS_TYPE":0,"CLASSIFICATION_TYPE":"U","NORAD_CAT_ID":64095,"ELEMENT_SET_NO":999,"REV_AT_EPOCH":4442,"BSTAR":0.00032611,"MEAN_MOTION_DOT":9.169e-5,"MEAN_MOTION_DDOT":0}]
